CCSDS_OMM_VERS = 2.0
CREATION_DATE  = 
ORIGINATOR     = 

OBJECT_NAME    = SL-14 R/B
OBJECT_ID      = 1986-046B
CENTER_NAME    = EARTH
REF_FRAME      = TEME
TIME_SYSTEM    = UTC
MEAN_ELEMENT_THEORY = SGP/SGP4

EPOCH          = 2026-03-11T11:47:19.896000
MEAN_MOTION    = 14.85592274
ECCENTRICITY   = .002208
INCLINATION    = 82.4784
RA_OF_ASC_NODE = 78.4790
ARG_OF_PERICENTER = 219.1346
MEAN_ANOMALY   = 140.8274

EPHEMERIS_TYPE = 0
CLASSIFICATION_TYPE = U
NORAD_CAT_ID   = 16792
ELEMENT_SET_NO = 999
REV_AT_EPOCH   = 12667
BSTAR          = .62494E-4
MEAN_MOTION_DOT = .567E-5
MEAN_MOTION_DDOT = 0

CCSDS_OMM_VERS = 2.0
CREATION_DATE  = 
ORIGINATOR     = 

OBJECT_NAME    = SL-14 R/B
OBJECT_ID      = 1986-055B
CENTER_NAME    = EARTH
REF_FRAME      = TEME
TIME_SYSTEM    = UTC
MEAN_ELEMENT_THEORY = SGP/SGP4

EPOCH          = 2026-03-11T05:12:52.890912
MEAN_MOTION    = 14.85644148
ECCENTRICITY   = .00180429
INCLINATION    = 82.5199
RA_OF_ASC_NODE = 125.2384
ARG_OF_PERICENTER = 331.3423
MEAN_ANOMALY   = 89.8517

EPHEMERIS_TYPE = 0
CLASSIFICATION_TYPE = U
NORAD_CAT_ID   = 16882
ELEMENT_SET_NO = 999
REV_AT_EPOCH   = 11959
BSTAR          = .53043158E-4
MEAN_MOTION_DOT = .485E-5
MEAN_MOTION_DDOT = 0

CCSDS_OMM_VERS = 2.0
CREATION_DATE  = 
ORIGINATOR     = 

OBJECT_NAME    = AJISAI (EGS)
OBJECT_ID      = 1986-061A
CENTER_NAME    = EARTH
REF_FRAME      = TEME
TIME_SYSTEM    = UTC
MEAN_ELEMENT_THEORY = SGP/SGP4

EPOCH          = 2026-03-11T13:36:26.080128
MEAN_MOTION    = 12.44515669
ECCENTRICITY   = .0011272
INCLINATION    = 50.0080
RA_OF_ASC_NODE = 87.5747
ARG_OF_PERICENTER = 291.8494
MEAN_ANOMALY   = 157.2804

EPHEMERIS_TYPE = 0
CLASSIFICATION_TYPE = U
NORAD_CAT_ID   = 16908
ELEMENT_SET_NO = 999
REV_AT_EPOCH   = 46823
BSTAR          = -.47266E-5
MEAN_MOTION_DOT = -.98E-6
MEAN_MOTION_DDOT = 0

CCSDS_OMM_VERS = 2.0
CREATION_DATE  = 
ORIGINATOR     = 

OBJECT_NAME    = SL-14 R/B
OBJECT_ID      = 1987-024B
CENTER_NAME    = EARTH
REF_FRAME      = TEME
TIME_SYSTEM    = UTC
MEAN_ELEMENT_THEORY = SGP/SGP4

EPOCH          = 2026-03-11T10:57:31.580928
MEAN_MOTION    = 14.86133767
ECCENTRICITY   = .0016718
INCLINATION    = 82.5246
RA_OF_ASC_NODE = 91.1026
ARG_OF_PERICENTER = 253.5370
MEAN_ANOMALY   = 106.4009

EPHEMERIS_TYPE = 0
CLASSIFICATION_TYPE = U
NORAD_CAT_ID   = 17567
ELEMENT_SET_NO = 999
REV_AT_EPOCH   = 8839
BSTAR          = .57222E-4
MEAN_MOTION_DOT = .527E-5
MEAN_MOTION_DDOT = 0

CCSDS_OMM_VERS = 2.0
CREATION_DATE  = 
ORIGINATOR     = 

OBJECT_NAME    = COSMOS 1833
OBJECT_ID      = 1987-027A
CENTER_NAME    = EARTH
REF_FRAME      = TEME
TIME_SYSTEM    = UTC
MEAN_ELEMENT_THEORY = SGP/SGP4

EPOCH          = 2026-03-11T03:13:39.950688
MEAN_MOTION    = 14.13054436
ECCENTRICITY   = .00242011
INCLINATION    = 70.9221
RA_OF_ASC_NODE = 322.9827
ARG_OF_PERICENTER = 212.5110
MEAN_ANOMALY   = 147.4522

EPHEMERIS_TYPE = 0
CLASSIFICATION_TYPE = U
NORAD_CAT_ID   = 17589
ELEMENT_SET_NO = 999
REV_AT_EPOCH   = 1052
BSTAR          = -.75051122E-4
MEAN_MOTION_DOT = -.189E-5
MEAN_MOTION_DDOT = 0

CCSDS_OMM_VERS = 2.0
CREATION_DATE  = 
ORIGINATOR     = 

OBJECT_NAME    = SL-16 R/B
OBJECT_ID      = 1987-027B
CENTER_NAME    = EARTH
REF_FRAME      = TEME
TIME_SYSTEM    = UTC
MEAN_ELEMENT_THEORY = SGP/SGP4

EPOCH          = 2026-03-11T12:39:34.534656
MEAN_MOTION    = 14.17166568
ECCENTRICITY   = .0003287
INCLINATION    = 70.9996
RA_OF_ASC_NODE = 272.6223
ARG_OF_PERICENTER = 139.0019
MEAN_ANOMALY   = 221.1352

EPHEMERIS_TYPE = 0
CLASSIFICATION_TYPE = U
NORAD_CAT_ID   = 17590
ELEMENT_SET_NO = 999
REV_AT_EPOCH   = 1560
BSTAR          = .44696E-4
MEAN_MOTION_DOT = .42E-6
MEAN_MOTION_DDOT = 0

CCSDS_OMM_VERS = 2.0
CREATION_DATE  = 
ORIGINATOR     = 

OBJECT_NAME    = SL-14 R/B
OBJECT_ID      = 1987-038B
CENTER_NAME    = EARTH
REF_FRAME      = TEME
TIME_SYSTEM    = UTC
MEAN_ELEMENT_THEORY = SGP/SGP4

EPOCH          = 2026-03-11T01:09:33.904512
MEAN_MOTION    = 14.85370579
ECCENTRICITY   = .00197868
INCLINATION    = 82.4999
RA_OF_ASC_NODE = 295.5279
ARG_OF_PERICENTER = 156.0818
MEAN_ANOMALY   = 204.1322

EPHEMERIS_TYPE = 0
CLASSIFICATION_TYPE = U
NORAD_CAT_ID   = 17912
ELEMENT_SET_NO = 999
REV_AT_EPOCH   = 7943
BSTAR          = .53733938E-4
MEAN_MOTION_DOT = .488E-5
MEAN_MOTION_DDOT = 0

CCSDS_OMM_VERS = 2.0
CREATION_DATE  = 
ORIGINATOR     = 

OBJECT_NAME    = COSMOS 1844
OBJECT_ID      = 1987-041A
CENTER_NAME    = EARTH
REF_FRAME      = TEME
TIME_SYSTEM    = UTC
MEAN_ELEMENT_THEORY = SGP/SGP4

EPOCH          = 2026-03-11T07:25:45.794784
MEAN_MOTION    = 14.14551754
ECCENTRICITY   = .0030107
INCLINATION    = 70.9000
RA_OF_ASC_NODE = 30.7579
ARG_OF_PERICENTER = 15.3578
MEAN_ANOMALY   = 344.8450

EPHEMERIS_TYPE = 0
CLASSIFICATION_TYPE = U
NORAD_CAT_ID   = 17973
ELEMENT_SET_NO = 999
REV_AT_EPOCH   = 381
BSTAR          = -.57148E-4
MEAN_MOTION_DOT = -.159E-5
MEAN_MOTION_DDOT = 0

CCSDS_OMM_VERS = 2.0
CREATION_DATE  = 
ORIGINATOR     = 

OBJECT_NAME    = SL-14 R/B
OBJECT_ID      = 1987-055B
CENTER_NAME    = EARTH
REF_FRAME      = TEME
TIME_SYSTEM    = UTC
MEAN_ELEMENT_THEORY = SGP/SGP4

EPOCH          = 2026-03-11T05:26:57.038784
MEAN_MOTION    = 14.85631544
ECCENTRICITY   = .0021036
INCLINATION    = 82.5030
RA_OF_ASC_NODE = 347.5829
ARG_OF_PERICENTER = 12.7804
MEAN_ANOMALY   = 347.3941

EPHEMERIS_TYPE = 0
CLASSIFICATION_TYPE = U
NORAD_CAT_ID   = 18153
ELEMENT_SET_NO = 999
REV_AT_EPOCH   = 7016
BSTAR          = .71783E-4
MEAN_MOTION_DOT = .648E-5
MEAN_MOTION_DDOT = 0

CCSDS_OMM_VERS = 2.0
CREATION_DATE  = 
ORIGINATOR     = 

OBJECT_NAME    = COSMOS 1867
OBJECT_ID      = 1987-060A
CENTER_NAME    = EARTH
REF_FRAME      = TEME
TIME_SYSTEM    = UTC
MEAN_ELEMENT_THEORY = SGP/SGP4

EPOCH          = 2026-03-11T01:09:14.702112
MEAN_MOTION    = 14.31503269
ECCENTRICITY   = .00144987
INCLINATION    = 65.0111
RA_OF_ASC_NODE = 302.9016
ARG_OF_PERICENTER = 278.7442
MEAN_ANOMALY   = 81.2000

EPHEMERIS_TYPE = 0
CLASSIFICATION_TYPE = U
NORAD_CAT_ID   = 18187
ELEMENT_SET_NO = 999
REV_AT_EPOCH   = 2013
BSTAR          = .30080651E-4
MEAN_MOTION_DOT = -.2E-6
MEAN_MOTION_DDOT = 0

CCSDS_OMM_VERS = 2.0
CREATION_DATE  = 
ORIGINATOR     = 

OBJECT_NAME    = SL-14 R/B
OBJECT_ID      = 1988-001B
CENTER_NAME    = EARTH
REF_FRAME      = TEME
TIME_SYSTEM    = UTC
MEAN_ELEMENT_THEORY = SGP/SGP4

EPOCH          = 2026-03-11T10:11:20.243904
MEAN_MOTION    = 14.85530276
ECCENTRICITY   = .0016933
INCLINATION    = 82.5156
RA_OF_ASC_NODE = 193.7287
ARG_OF_PERICENTER = 229.5625
MEAN_ANOMALY   = 130.4115

EPHEMERIS_TYPE = 0
CLASSIFICATION_TYPE = U
NORAD_CAT_ID   = 18749
ELEMENT_SET_NO = 999
REV_AT_EPOCH   = 4228
BSTAR          = .77853E-4
MEAN_MOTION_DOT = .698E-5
MEAN_MOTION_DDOT = 0

CCSDS_OMM_VERS = 2.0
CREATION_DATE  = 
ORIGINATOR     = 

OBJECT_NAME    = COSMOS 1933
OBJECT_ID      = 1988-020A
CENTER_NAME    = EARTH
REF_FRAME      = TEME
TIME_SYSTEM    = UTC
MEAN_ELEMENT_THEORY = SGP/SGP4

EPOCH          = 2026-03-11T12:05:45.325248
MEAN_MOTION    = 15.18003025
ECCENTRICITY   = .0004069
INCLINATION    = 82.5103
RA_OF_ASC_NODE = 249.1161
ARG_OF_PERICENTER = 175.1712
MEAN_ANOMALY   = 184.9562

EPHEMERIS_TYPE = 0
CLASSIFICATION_TYPE = U
NORAD_CAT_ID   = 18958
ELEMENT_SET_NO = 999
REV_AT_EPOCH   = 5050
BSTAR          = .28517E-3
MEAN_MOTION_DOT = .5827E-4
MEAN_MOTION_DDOT = 0

